#dP2021  1 25  6  0  0.00000000      96 __u+U ITR00 EXT  IAC
## 2142 108000.00000000   900.00000000 59239 0.2500000000000
+  115   C06C07C08C09C10C11C12C13C14C16C19C20C21C22C23C24C25
+        C26C27C28C29C30C32C33C34C35C36C37C38C39C40C43C44C45
+        C46E01E02E03E04E05E07E08E09E11E12E13E14E15E18E19E21
+        E24E25E26E27E30E31E33E36G01G02G03G04G05G06G07G08G09
+        G10G11G12G13G14G15G16G17G18G19G20G21G22G23G24G25G26
+        G27G28G29G30G31G32J01J02J03R01R02R03R04R05R07R08R09
+        R11R12R13R14R15R16R17R18R19R20R21R22R24  0  0  0  0
++        11  9  9 11  9 10  8  8  8 10  9 11 10  9  8 10  8
++        10 10  8 11  8  9  8 10  9  9  9  9 10 11 10  9 11
++        10  9  9 10  8  8  9  9  8  9  9  8  9  8  9  8  9
++         8  8  9  9  8  8  8  8  8  8  9  7  8  7  8  8  7
++         8  8  8  8  8  7  8  8  8  8  9  8  9  8  8  8  9
++         8  8  8  7  8  7 11 11 10  9  7  9  7  7  8  8  8
++         9  8  8  9  8  9 10  9  9  9  9 10  8  0  0  0  0
%c M  cc GPS ccc cccc cccc cccc cccc ccccc ccccc ccccc ccccc
%c cc cc ccc ccc cccc cccc cccc cccc ccccc ccccc ccccc ccccc
%f  0.0000000  0.000000000  0.00000000000  0.000000000000000
%f  0.0000000  0.000000000  0.00000000000  0.000000000000000
%i    0    0    0    0      0      0      0      0         0
%i    0    0    0    0      0      0      0      0         0
/* IAC                                ULTRA-RAPID PREDICTION
/* S/V CLOCKS ARE ALIGNED TO GNSS TIME                      
/* G:C1WC2W R:C1PC2P E:C1XC5X C:C2IC6I J:C1CC2S             
/* PCV:IGS14_2134 OL/AL:FES2004  NONE     YN ORB:CoN CLK:CoN
*  2021 01 25 11  0  0.00000000
PC06  -6525.118233  33726.181396 -23728.438652     34.023698
PC07 -16270.867064  23527.784689  31096.474902   -261.004495
PC08 -23113.358280  34734.920242  -7218.900499   -926.281701
PC09   3935.124142  40263.587969 -10776.237807    779.515926
PC10  -1862.727746  26437.756512  33003.253000    -97.933332
PC11  -4171.202631 -27558.847277   -720.230519   -910.247479
PC12   7502.262072 -20889.286326 -16860.090937    752.722329
PC13 -11005.275549  35201.825135 -20546.280358    112.931766
PC14  -6948.771424 -17520.404446  20584.878963    -17.967581
PC16  -5314.521440  34332.508138 -23673.937052   -671.539894
PC19  16876.488122  16573.265111 -14794.273661    703.615337
PC20  -2253.701999  15904.910481 -22807.640461   -910.576744
PC21  20975.629426  -5641.032943  17544.031598   -807.914717
PC22  26755.546249   7715.606624   2024.121008   -856.190579
PC23 -20690.519846     21.532367 -18731.592755   -878.902512
PC24  12005.071908 -21889.498246 -12447.920744   -747.670081
PC25  -7146.255898 -15035.122034 -22401.435609   -909.768176
PC26  22247.947949 -16408.457751   3652.101883    957.981581
PC27 -12989.305755  12067.986381  21531.841142    472.233402
PC28 -16197.593753  -9092.975514  20831.273124   -117.540965
PC29  10844.942193  24464.615535  -7907.464251    343.325365
PC30  -1548.701273  25980.661950  10036.899936    435.917726
PC32 -20938.628967   5783.699887 -17503.148898   -886.402813
PC33 -16846.973113 -16535.050665  14877.249859   -932.127399
PC34   1168.720354 -26253.221826  -9429.947353   -755.200938
PC35  16536.792002   8801.541259 -20670.678005   -449.285652
PC36   6461.058654  15431.804025  22354.984345   -769.205877
PC37 -22861.528741  15399.595101  -4426.278986   -861.235496
PC38 -20897.470955  35640.728692  -8695.652597    126.002483
PC39  -2002.612449  35296.351114 -22875.564344     27.781181
PC40  -8626.962256  20852.091507  35626.128738    124.788865
PC43 -10516.849176 -24761.316410   7465.998611   -567.813661
PC44  12781.201019 -12356.131774 -21520.483447      4.540181
PC45  20631.491728   -176.068842  18776.241525    344.509058
PC46 -11342.029475  21880.659249  13131.392296    436.084644
PE01  21778.004684 -14791.193827 -13520.290285  -1032.117590
PE02 -21720.585470  14832.205055  13599.542152    193.583630
PE03 -10814.320984  13361.631083 -24103.622979   -391.217264
PE04  -7288.536485 -23780.558917  16049.381207   -696.037080
PE05 -22847.911353  -5066.677512 -18126.831991   -310.031879
PE07  21432.337043  20357.209492   1633.732512   -492.217694
PE08   7759.811412  23737.638797 -15900.890900   6056.856424
PE09 -21589.337675 -20161.687605  -1784.458185   5787.520513
PE11 -10456.106653 -16702.053230  22095.281519   6417.862011
PE12   2873.560431 -28563.532546   7262.587843   5389.289540
PE13  10223.445867  17005.453845 -21950.242667    410.892794
PE14  -2368.612179 -25657.115705 -12277.513312  -1306.848077
PE15  -2774.685349  28547.712147  -7292.022943    832.581600
PE18  15448.122088  24589.430770  -2914.498146  -1428.393185
PE19  12614.150911 -11361.012467  24247.740981    187.147430
PE21  28953.384698  -4280.363100   4384.174778   -644.776694
PE24 -18996.342745  -9610.947673 -20591.778305   -708.173064
PE25 -28956.267806   4165.361560  -4551.529206   -525.050413
PE26  17430.814722  -5172.783738 -23344.497365   2225.063325
PE27  19530.612611   9117.214051  20282.736191     43.835821
PE30  -2259.667001  17216.962654  23965.039330   3234.835445
PE31   1286.035795 -17058.254880 -24149.999829   -477.676709
PE33  14104.230654 -23292.356638 -11602.067528   -465.145971
PE36 -17190.070926   4500.146812  23684.412245    449.569189
PG01 -14253.072944  21960.990927   2960.416955    774.038773
PG02  16809.365765  -4426.108886 -19427.719682   -569.792765
PG03 -14565.544903  12916.327044 -18101.493788    -65.404512
PG04  -6716.051588  16232.899005 -19900.637928   -175.394216
PG05  26364.230649  -3267.107875   2111.543118    -31.916826
PG06  10780.335707  10622.478687 -21756.426273     -4.251806
PG07  -3788.585373  23649.345050  11260.242318     34.630684
PG08 -12002.188150   9130.073119  21862.349409     -7.874353
PG09   4197.162615  23023.136819 -12600.928579   -316.361245
PG10 -15572.274603 -11934.064257  18131.339917    -46.920601
PG11 -11665.972263  18470.907245  14897.759268    -43.285095
PG12  18636.445580 -10185.199495 -16094.330697      8.133191
PG13  16516.800772   2095.856755  20585.640204     89.745805
PG14  13164.588564  13366.932040  18795.552810     90.352313
PG15  11058.338269 -11294.724579  20968.895592   -173.951952
PG16 -26770.099860   -777.098616   1128.946285   -270.216077
PG17  14226.373443  22183.647393  -2894.357659    384.652360
PG18   2426.570896 -22875.737227  13223.547491    343.605694
PG19  16802.941838  17509.384211 -11177.709733    -47.307524
PG20  -3045.537447 -15403.853126  21364.892487    525.006010
PG21 -16836.605489  16840.075162  12046.947537     89.851089
PG22 -21461.897186  10857.414220 -10883.410486   -691.924065
PG23  -3793.341615 -14863.561039  21660.397178    117.236111
PG24  15317.231513 -19878.533391   7828.567585      3.213913
PG25   4082.339150 -15190.638912 -21620.885633     66.920773
PG26 -24296.442061  -5303.014764  -9741.318006     35.115871
PG27 -18010.336455  -4755.674558  18919.147967    -63.077669
PG28  15596.916801  12940.087209  17633.096315    624.915712
PG29  -2147.810098 -22930.545665 -13232.455133   -282.418850
PG30   5471.144846  18056.075544  18655.622636   -374.436330
PG31 -13090.774273  -8029.121861 -21739.049049    -96.025685
PG32 -16311.046608 -20696.794194  -3884.763778     16.017122
PJ01 -26533.837626  15679.206044 -24180.971017   -337.725169
PJ02 -31486.880148  26509.341832  13919.221917      1.079182
PJ03 -25399.899287  26455.752800  25965.650107     -0.257184
PR01  16888.582334  -1264.986586  19077.562102     73.998462
PR02  -2665.573305 -13337.402121  21630.095575    464.316914
PR03 -17790.227825 -15517.457660   9771.648716     29.772362
PR04 -22679.889145  -8961.481847  -7473.808735     71.420519
PR05 -14910.146633   2513.590273 -20543.550815     65.362357
PR07  18153.954697  15381.725950  -9096.908101    -42.242689
PR08  22693.677738   8839.707621   7598.872281    -57.032766
PR09  -9634.483773  15809.504711  17527.968566     20.494047
PR11  20066.019980  -3725.814698  15313.687805      4.179610
PR12  21475.298346 -13621.824555  -1763.642681    199.534368
PR13  10147.758348 -15761.475085 -17315.928757    -49.781467
PR14  -7489.067543  -8389.094050 -22887.566887     60.243536
PR15 -20330.552579   3620.876563 -14963.823715    105.736845
PR16 -20934.649278  14457.855561   2629.255055    -10.562932
PR17  -5747.247657 -21412.126628  12599.642567    394.294146
PR18 -10111.617556  -6429.807138  22547.826237     64.371045
PR19  -9593.803467  11158.534929  20842.627648   -129.333123
PR20  -3088.701285  24745.439674   5271.057445   -431.902617
PR21   6051.322706  20763.370662 -13537.894956   -182.882952
PR22  10162.257412   5069.089660 -22835.458872    -94.344015
PR24   2518.199288 -24981.956259  -4443.981499     29.075764
EOF
